{"type": "FeatureCollection", "features": [ {"type": "Feature", "properties": {"norad_id": 34340, "name": "COSMOS 2251 DEB", "group": "cosmos-2251-debris", "lat": -42.05440629567104, "lon": -91.9642566486029, "alt_km": 899.2807295873836, "timestamp": "2025-12-27T17:24:57.801739+00:00", "meta": {"OBJECT_NAME": "COSMOS 2251 DEB", "OBJECT_ID": "1993-036PN", "EPOCH": "2025-12-27T04:15:40.998240", "MEAN_MOTION": 13.79636696, "ECCENTRICITY": 0.02845228, "INCLINATION": 74.079, "RA_OF_ASC_NODE": 283.8723, "ARG_OF_PERICENTER": 28.3291, "MEAN_ANOMALY": 89.4114, "EPHEMERIS_TYPE": 0, "CLASSIFICATION_TYPE": "U", "NORAD_CAT_ID": 34340, "ELEMENT_SET_NO": 999, "REV_AT_EPOCH": 84467, "BSTAR": 0.0020938728, "MEAN_MOTION_DOT": 2.907e-05, "MEAN_MOTION_DDOT": 0}, "tle": {"line1": "1 34340U 93036PN  25361.17755785  .00002907  00000+0  20939-2 0  9999", "line2": "2 34340  74.0790 283.8723 0284522  28.3291  89.4114 13.79636696844676"}}, "geometry": {"type": "Point", "coordinates": [-91.9642566486029, -42.05440629567104]}}, {"type": "Feature", "properties": {"norad_id": 34343, "name": "COSMOS 2251 DEB", "group": "cosmos-2251-debris", "lat": -19.530351058561354, "lon": -113.67539724992722, "alt_km": 678.2604402099269, "timestamp": "2025-12-27T17:24:57.801749+00:00", "meta": {"OBJECT_NAME": "COSMOS 2251 DEB", "OBJECT_ID": "1993-036PR", "EPOCH": "2025-12-27T12:06:56.295936", "MEAN_MOTION": 14.69664316, "ECCENTRICITY": 0.0024673, "INCLINATION": 74.02, "RA_OF_ASC_NODE": 60.9188, "ARG_OF_PERICENTER": 331.5282, "MEAN_ANOMALY": 140.9302, "EPHEMERIS_TYPE": 0, "CLASSIFICATION_TYPE": "U", "NORAD_CAT_ID": 34343, "ELEMENT_SET_NO": 999, "REV_AT_EPOCH": 88947, "BSTAR": 0.0014352, "MEAN_MOTION_DOT": 8.56e-05, "MEAN_MOTION_DDOT": 0}, "tle": {"line1": "1 34343U 93036PR  25361.50481824  .00008560  00000+0  14352-2 0  9992", "line2": "2 34343  74.0200  60.9188 0024673 331.5282 140.9302 14.69664316889471"}}, "geometry": {"type": "Point", "coordinates": [-113.67539724992722, -19.530351058561354]}}, {"type": "Feature", "properties": {"norad_id": 34344, "name": "COSMOS 2251 DEB", "group": "cosmos-2251-debris", "lat": -36.44851625915254, "lon": 71.33868068447238, "alt_km": 779.9736176333863, "timestamp": "2025-12-27T17:24:57.801760+00:00", "meta": {"OBJECT_NAME": "COSMOS 2251 DEB", "OBJECT_ID": "1993-036PS", "EPOCH": "2025-12-27T05:52:33.465792", "MEAN_MOTION": 14.16529276, "ECCENTRICITY": 0.0157465, "INCLINATION": 73.9777, "RA_OF_ASC_NODE": 84.4498, "ARG_OF_PERICENTER": 265.8461, "MEAN_ANOMALY": 123.4935, "EPHEMERIS_TYPE": 0, "CLASSIFICATION_TYPE": "U", "NORAD_CAT_ID": 34344, "ELEMENT_SET_NO": 999, "REV_AT_EPOCH": 86302, "BSTAR": 0.0021769, "MEAN_MOTION_DOT": 4.871e-05, "MEAN_MOTION_DDOT": 0}, "tle": {"line1": "1 34344U 93036PS  25361.24483178  .00004871  00000+0  21769-2 0  9999", "line2": "2 34344  73.9777  84.4498 0157465 265.8461 123.4935 14.16529276863026"}}, "geometry": {"type": "Point", "coordinates": [71.33868068447238, -36.44851625915254]}}, {"type": "Feature", "properties": {"norad_id": 34346, "name": "COSMOS 2251 DEB", "group": "cosmos-2251-debris", "lat": -65.38703722315768, "lon": 145.0382081449385, "alt_km": 1029.9532850929863, "timestamp": "2025-12-27T17:24:57.801770+00:00", "meta": {"OBJECT_NAME": "COSMOS 2251 DEB", "OBJECT_ID": "1993-036PU", "EPOCH": "2025-12-27T06:31:35.672160", "MEAN_MOTION": 13.99742365, "ECCENTRICITY": 0.0206276, "INCLINATION": 73.9945, "RA_OF_ASC_NODE": 287.0292, "ARG_OF_PERICENTER": 102.4559, "MEAN_ANOMALY": 21.8602, "EPHEMERIS_TYPE": 0, "CLASSIFICATION_TYPE": "U", "NORAD_CAT_ID": 34346, "ELEMENT_SET_NO": 999, "REV_AT_EPOCH": 85613, "BSTAR": 0.0011568, "MEAN_MOTION_DOT": 2.013e-05, "MEAN_MOTION_DDOT": 0}, "tle": {"line1": "1 34346U 93036PU  25361.27194065  .00002013  00000+0  11568-2 0  9990", "line2": "2 34346  73.9945 287.0292 0206276 102.4559  21.8602 13.99742365856139"}}, "geometry": {"type": "Point", "coordinates": [145.0382081449385, -65.38703722315768]}}, {"type": "Feature", "properties": {"norad_id": 34383, "name": "COSMOS 2251 DEB", "group": "cosmos-2251-debris", "lat": -67.54834845222572, "lon": 130.66592863980875, "alt_km": 542.8688350665971, "timestamp": "2025-12-27T17:24:57.801780+00:00", "meta": {"OBJECT_NAME": "COSMOS 2251 DEB", "OBJECT_ID": "1993-036PY", "EPOCH": "2025-12-27T12:18:29.395008", "MEAN_MOTION": 15.10471909, "ECCENTRICITY": 0.0002398, "INCLINATION": 74.0193, "RA_OF_ASC_NODE": 267.1966, "ARG_OF_PERICENTER": 35.4376, "MEAN_ANOMALY": 141.7615, "EPHEMERIS_TYPE": 0, "CLASSIFICATION_TYPE": "U", "NORAD_CAT_ID": 34383, "ELEMENT_SET_NO": 999, "REV_AT_EPOCH": 89336, "BSTAR": 0.0038833, "MEAN_MOTION_DOT": 0.00064486, "MEAN_MOTION_DDOT": 0}, "tle": {"line1": "1 34383U 93036PY  25361.51284022  .00064486  00000+0  38833-2 0  9997", "line2": "2 34383  74.0193 267.1966 0002398  35.4376 141.7615 15.10471909893365"}}, "geometry": {"type": "Point", "coordinates": [130.66592863980875, -67.54834845222572]}}, {"type": "Feature", "properties": {"norad_id": 34387, "name": "COSMOS 2251 DEB", "group": "cosmos-2251-debris", "lat": -57.711964478434446, "lon": 30.973783368340214, "alt_km": 730.2859182832244, "timestamp": "2025-12-27T17:24:57.801791+00:00", "meta": {"OBJECT_NAME": "COSMOS 2251 DEB", "OBJECT_ID": "1993-036QC", "EPOCH": "2025-12-26T12:10:12.207072", "MEAN_MOTION": 14.43849863, "ECCENTRICITY": 0.0038902, "INCLINATION": 74.0384, "RA_OF_ASC_NODE": 186.3056, "ARG_OF_PERICENTER": 280.7918, "MEAN_ANOMALY": 109.5099, "EPHEMERIS_TYPE": 0, "CLASSIFICATION_TYPE": "U", "NORAD_CAT_ID": 34387, "ELEMENT_SET_NO": 999, "REV_AT_EPOCH": 88380, "BSTAR": 0.00032075, "MEAN_MOTION_DOT": 1.076e-05, "MEAN_MOTION_DDOT": 0}, "tle": {"line1": "1 34387U 93036QC  25360.50708573  .00001076  00000+0  32075-3 0  9990", "line2": "2 34387  74.0384 186.3056 0038902 280.7918 109.5099 14.43849863883809"}}, "geometry": {"type": "Point", "coordinates": [30.973783368340214, -57.711964478434446]}}, {"type": "Feature", "properties": {"norad_id": 34388, "name": "COSMOS 2251 DEB", "group": "cosmos-2251-debris", "lat": 15.233690822374808, "lon": 10.52715964924908, "alt_km": 725.9378499683135, "timestamp": "2025-12-27T17:24:57.801891+00:00", "meta": {"OBJECT_NAME": "COSMOS 2251 DEB", "OBJECT_ID": "1993-036QD", "EPOCH": "2025-12-26T21:03:55.077120", "MEAN_MOTION": 14.49432634, "ECCENTRICITY": 0.0013584, "INCLINATION": 74.0378, "RA_OF_ASC_NODE": 196.5876, "ARG_OF_PERICENTER": 243.9719, "MEAN_ANOMALY": 177.4472, "EPHEMERIS_TYPE": 0, "CLASSIFICATION_TYPE": "U", "NORAD_CAT_ID": 34388, "ELEMENT_SET_NO": 999, "REV_AT_EPOCH": 88360, "BSTAR": 0.00077434, "MEAN_MOTION_DOT": 2.94e-05, "MEAN_MOTION_DDOT": 0}, "tle": {"line1": "1 34388U 93036QD  25360.87772080  .00002940  00000+0  77434-3 0  9994", "line2": "2 34388  74.0378 196.5876 0013584 243.9719 177.4472 14.49432634883602"}}, "geometry": {"type": "Point", "coordinates": [10.52715964924908, 15.233690822374808]}}, {"type": "Feature", "properties": {"norad_id": 34389, "name": "COSMOS 2251 DEB", "group": "cosmos-2251-debris", "lat": 53.02830008035077, "lon": 19.646963571855487, "alt_km": 766.6805869613418, "timestamp": "2025-12-27T17:24:57.801904+00:00", "meta": {"OBJECT_NAME": "COSMOS 2251 DEB", "OBJECT_ID": "1993-036QE", "EPOCH": "2025-12-26T17:50:07.367712", "MEAN_MOTION": 14.41563956, "ECCENTRICITY": 0.00295087, "INCLINATION": 74.017, "RA_OF_ASC_NODE": 223.8477, "ARG_OF_PERICENTER": 333.1475, "MEAN_ANOMALY": 93.5228, "EPHEMERIS_TYPE": 0, "CLASSIFICATION_TYPE": "U", "NORAD_CAT_ID": 34389, "ELEMENT_SET_NO": 999, "REV_AT_EPOCH": 88214, "BSTAR": 0.00032149365, "MEAN_MOTION_DOT": 1.024e-05, "MEAN_MOTION_DDOT": 0}, "tle": {"line1": "1 34389U 93036QE  25360.74314083  .00001024  00000+0  32149-3 0  9992", "line2": "2 34389  74.0170 223.8477 0029508 333.1475  93.5228 14.41563956882147"}}, "geometry": {"type": "Point", "coordinates": [19.646963571855487, 53.02830008035077]}}, {"type": "Feature", "properties": {"norad_id": 34396, "name": "COSMOS 2251 DEB", "group": "cosmos-2251-debris", "lat": 28.42353960696736, "lon": 103.67032444785879, "alt_km": 644.4994867093001, "timestamp": "2025-12-27T17:24:57.801915+00:00", "meta": {"OBJECT_NAME": "COSMOS 2251 DEB", "OBJECT_ID": "1993-036QM", "EPOCH": "2025-12-27T07:46:26.686272", "MEAN_MOTION": 14.7480598, "ECCENTRICITY": 0.0004212, "INCLINATION": 74.0289, "RA_OF_ASC_NODE": 95.5382, "ARG_OF_PERICENTER": 128.0985, "MEAN_ANOMALY": 289.5971, "EPHEMERIS_TYPE": 0, "CLASSIFICATION_TYPE": "U", "NORAD_CAT_ID": 34396, "ELEMENT_SET_NO": 999, "REV_AT_EPOCH": 88561, "BSTAR": 0.0021914, "MEAN_MOTION_DOT": 0.00014679, "MEAN_MOTION_DDOT": 0}, "tle": {"line1": "1 34396U 93036QM  25361.32391998  .00014679  00000+0  21914-2 0  9992", "line2": "2 34396  74.0289  95.5382 0004212 128.0985 289.5971 14.74805980885616"}}, "geometry": {"type": "Point", "coordinates": [103.67032444785879, 28.42353960696736]}}, {"type": "Feature", "properties": {"norad_id": 34400, "name": "COSMOS 2251 DEB", "group": "cosmos-2251-debris", "lat": 47.95967058336168, "lon": 151.38541416785813, "alt_km": 378.75222667460275, "timestamp": "2025-12-27T17:24:57.801926+00:00", "meta": {"OBJECT_NAME": "COSMOS 2251 DEB", "OBJECT_ID": "1993-036QR", "EPOCH": "2025-12-27T09:10:20.093664", "MEAN_MOTION": 15.60738449, "ECCENTRICITY": 0.0003712, "INCLINATION": 73.9625, "RA_OF_ASC_NODE": 350.7586, "ARG_OF_PERICENTER": 181.6229, "MEAN_ANOMALY": 178.4977, "EPHEMERIS_TYPE": 0, "CLASSIFICATION_TYPE": "U", "NORAD_CAT_ID": 34400, "ELEMENT_SET_NO": 999, "REV_AT_EPOCH": 90202, "BSTAR": 0.0038362, "MEAN_MOTION_DOT": 0.00332494, "MEAN_MOTION_DDOT": 0}, "tle": {"line1": "1 34400U 93036QR  25361.38217701  .00332494  00000+0  38362-2 0  9996", "line2": "2 34400  73.9625 350.7586 0003712 181.6229 178.4977 15.60738449902024"}}, "geometry": {"type": "Point", "coordinates": [151.38541416785813, 47.95967058336168]}}]}